CTC1_L_00346001-01
1 82499U 24947HV  26070.40835648  .00000000  00000+0  00000-0 0  9990
2 82499  90.0000   0.0000 0000000   0.0000   0.0000 13.81096544    15
CTC1_L_00346001-02
1 82500U 24477CD  26070.40835648  .00000000  00000+0  00000-0 0  9991
2 82500  90.0000   0.0000 0000000   0.0000  90.0000 13.81096544    17
CTC1_L_00346001-03
1 82501U 24299VG  26070.40835648  .00000000  00000+0  00000-0 0  9994
2 82501  90.0000   0.0000 0000000   0.0000 180.0000 13.81096544    18
CTC1_L_00346001-04
1 82502U 26739KL  26070.40835648  .00000000  00000+0  00000-0 0  9996
2 82502  90.0000   0.0000 0000000   0.0000 270.0000 13.81096544    19
CTC1_L_00346002-01
1 82503U 23765ZT  26070.40835648  .00000000  00000+0  00000-0 0  9993
2 82503  90.0000  12.0000 0000000   0.0000  12.0000 13.81096544    17
CTC1_L_00346002-02
1 82504U 25559BF  26070.40835648  .00000000  00000+0  00000-0 0  9997
2 82504  90.0000  12.0000 0000000   0.0000 102.0000 13.81096544    18
CTC1_L_00346002-03
1 82505U 26811SG  26070.40835648  .00000000  00000+0  00000-0 0  9990
2 82505  90.0000  12.0000 0000000   0.0000 192.0000 13.81096544    18
CTC1_L_00346002-04
1 82506U 25484OE  26070.40835648  .00000000  00000+0  00000-0 0  9996
2 82506  90.0000  12.0000 0000000   0.0000 282.0000 13.81096544    19
CTC1_L_00346003-01
1 82507U 26320SN  26070.40835648  .00000000  00000+0  00000-0 0  9997
2 82507  90.0000  24.0000 0000000   0.0000  24.0000 13.81096544    17
CTC1_L_00346003-02
1 82508U 23371WC  26070.40835648  .00000000  00000+0  00000-0 0  9991
2 82508  90.0000  24.0000 0000000   0.0000 114.0000 13.81096544    18
CTC1_L_00346003-03
1 82509U 26040HJ  26070.40835648  .00000000  00000+0  00000-0 0  9998
2 82509  90.0000  24.0000 0000000   0.0000 204.0000 13.81096544    19
CTC1_L_00346003-04
1 82510U 26634QC  26070.40835648  .00000000  00000+0  00000-0 0  9999
2 82510  90.0000  24.0000 0000000   0.0000 294.0000 13.81096544    10
CTC1_L_00346004-01
1 82511U 22156LU  26070.40835648  .00000000  00000+0  00000-0 0  9995
2 82511  90.0000  36.0000 0000000   0.0000  36.0000 13.81096544    18
CTC1_L_00346004-02
1 82512U 25242JA  26070.40835648  .00000000  00000+0  00000-0 0  9995
2 82512  90.0000  36.0000 0000000   0.0000 126.0000 13.81096544    19
CTC1_L_00346004-03
1 82513U 25983UO  26070.40835648  .00000000  00000+0  00000-0 0  9998
2 82513  90.0000  36.0000 0000000   0.0000 216.0000 13.81096544    10
CTC1_L_00346004-04
1 82514U 23819BB  26070.40835648  .00000000  00000+0  00000-0 0  9995
2 82514  90.0000  36.0000 0000000   0.0000 306.0000 13.81096544    11
CTC1_L_00346005-01
1 82515U 22359TB  26070.40835648  .00000000  00000+0  00000-0 0  9994
2 82515  90.0000  48.0000 0000000   0.0000  48.0000 13.81096544    18
CTC1_L_00346005-02
1 82516U 23337YT  26070.40835648  .00000000  00000+0  00000-0 0  9992
2 82516  90.0000  48.0000 0000000   0.0000 138.0000 13.81096544    19
CTC1_L_00346005-03
1 82517U 25719GJ  26070.40835648  .00000000  00000+0  00000-0 0  9999
2 82517  90.0000  48.0000 0000000   0.0000 228.0000 13.81096544    10
CTC1_L_00346005-04
1 82518U 24035WR  26070.40835648  .00000000  00000+0  00000-0 0  9990
2 82518  90.0000  48.0000 0000000   0.0000 318.0000 13.81096544    11
CTC1_L_00346006-01
1 82519U 22954CD  26070.40835648  .00000000  00000+0  00000-0 0  9999
2 82519  90.0000  60.0000 0000000   0.0000  60.0000 13.81096544    10
CTC1_L_00346006-02
1 82520U 24010TA  26070.40835648  .00000000  00000+0  00000-0 0  9996
2 82520  90.0000  60.0000 0000000   0.0000 150.0000 13.81096544    12
CTC1_L_00346006-03
1 82521U 24061OD  26070.40835648  .00000000  00000+0  00000-0 0  9993
2 82521  90.0000  60.0000 0000000   0.0000 240.0000 13.81096544    13
CTC1_L_00346006-04
1 82522U 26622OD  26070.40835648  .00000000  00000+0  00000-0 0  9999
2 82522  90.0000  60.0000 0000000   0.0000 330.0000 13.81096544    14
CTC1_L_00346007-01
1 82523U 26026GX  26070.40835648  .00000000  00000+0  00000-0 0  9998
2 82523  90.0000  72.0000 0000000   0.0000  72.0000 13.81096544    11
CTC1_L_00346007-02
1 82524U 23095UH  26070.40835648  .00000000  00000+0  00000-0 0  9992
2 82524  90.0000  72.0000 0000000   0.0000 162.0000 13.81096544    12
CTC1_L_00346007-03
1 82525U 23264JE  26070.40835648  .00000000  00000+0  00000-0 0  9991
2 82525  90.0000  72.0000 0000000   0.0000 252.0000 13.81096544    13
CTC1_L_00346007-04
1 82526U 22804AK  26070.40835648  .00000000  00000+0  00000-0 0  9991
2 82526  90.0000  72.0000 0000000   0.0000 342.0000 13.81096544    14
CTC1_L_00346008-01
1 82527U 24130W   26070.40835648  .00000000  00000+0  00000-0 0  9996
2 82527  90.0000  84.0000 0000000   0.0000  84.0000 13.81096544    11
CTC1_L_00346008-02
1 82528U 24038IZ  26070.40835648  .00000000  00000+0  00000-0 0  9994
2 82528  90.0000  84.0000 0000000   0.0000 174.0000 13.81096544    12
CTC1_L_00346008-03
1 82529U 23534NX  26070.40835648  .00000000  00000+0  00000-0 0  9995
2 82529  90.0000  84.0000 0000000   0.0000 264.0000 13.81096544    13
CTC1_L_00346008-04
1 82530U 24070JX  26070.40835648  .00000000  00000+0  00000-0 0  9993
2 82530  90.0000  84.0000 0000000   0.0000 354.0000 13.81096544    15
CTC1_L_00346009-01
1 82531U 24329TE  26070.40835648  .00000000  00000+0  00000-0 0  9991
2 82531  90.0000  96.0000 0000000   0.0000  96.0000 13.81096544    12
CTC1_L_00346009-02
1 82532U 23354KK  26070.40835648  .00000000  00000+0  00000-0 0  9999
2 82532  90.0000  96.0000 0000000   0.0000 186.0000 13.81096544    13
CTC1_L_00346009-03
1 82533U 25402QM  26070.40835648  .00000000  00000+0  00000-0 0  9996
2 82533  90.0000  96.0000 0000000   0.0000 276.0000 13.81096544    14
CTC1_L_00346009-04
1 82534U 22021ZM  26070.40835648  .00000000  00000+0  00000-0 0  9991
2 82534  90.0000  96.0000 0000000   0.0000   6.0000 13.81096544    16
CTC1_L_00346010-01
1 82535U 23332DE  26070.40835648  .00000000  00000+0  00000-0 0  9998
2 82535  90.0000 108.0000 0000000   0.0000 108.0000 13.81096544    14
CTC1_L_00346010-02
1 82536U 22010N   26070.40835648  .00000000  00000+0  00000-0 0  9991
2 82536  90.0000 108.0000 0000000   0.0000 198.0000 13.81096544    14
CTC1_L_00346010-03
1 82537U 23482XF  26070.40835648  .00000000  00000+0  00000-0 0  9996
2 82537  90.0000 108.0000 0000000   0.0000 288.0000 13.81096544    15
CTC1_L_00346010-04
1 82538U 25497GS  26070.40835648  .00000000  00000+0  00000-0 0  9995
2 82538  90.0000 108.0000 0000000   0.0000  18.0000 13.81096544    17
CTC1_L_00346011-01
1 82539U 23743JB  26070.40835648  .00000000  00000+0  00000-0 0  9998
2 82539  90.0000 120.0000 0000000   0.0000 120.0000 13.81096544    16
CTC1_L_00346011-02
1 82540U 25942XF  26070.40835648  .00000000  00000+0  00000-0 0  9993
2 82540  90.0000 120.0000 0000000   0.0000 210.0000 13.81096544    18
CTC1_L_00346011-03
1 82541U 23103KE  26070.40835648  .00000000  00000+0  00000-0 0  9991
2 82541  90.0000 120.0000 0000000   0.0000 300.0000 13.81096544    19
CTC1_L_00346011-04
1 82542U 22283KI  26070.40835648  .00000000  00000+0  00000-0 0  9990
2 82542  90.0000 120.0000 0000000   0.0000  30.0000 13.81096544    10
CTC1_L_00346012-01
1 82543U 26237LX  26070.40835648  .00000000  00000+0  00000-0 0  9994
2 82543  90.0000 132.0000 0000000   0.0000 132.0000 13.81096544    17
CTC1_L_00346012-02
1 82544U 26548SW  26070.40835648  .00000000  00000+0  00000-0 0  9990
2 82544  90.0000 132.0000 0000000   0.0000 222.0000 13.81096544    18
CTC1_L_00346012-03
1 82545U 24226AY  26070.40835648  .00000000  00000+0  00000-0 0  9992
2 82545  90.0000 132.0000 0000000   0.0000 312.0000 13.81096544    19
CTC1_L_00346012-04
1 82546U 25989IP  26070.40835648  .00000000  00000+0  00000-0 0  9990
2 82546  90.0000 132.0000 0000000   0.0000  42.0000 13.81096544    10
CTC1_L_00346013-01
1 82547U 22610SP  26070.40835648  .00000000  00000+0  00000-0 0  9999
2 82547  90.0000 144.0000 0000000   0.0000 144.0000 13.81096544    17
CTC1_L_00346013-02
1 82548U 26479BH  26070.40835648  .00000000  00000+0  00000-0 0  9997
2 82548  90.0000 144.0000 0000000   0.0000 234.0000 13.81096544    18
CTC1_L_00346013-03
1 82549U 25345HR  26070.40835648  .00000000  00000+0  00000-0 0  9999
2 82549  90.0000 144.0000 0000000   0.0000 324.0000 13.81096544    19
CTC1_L_00346013-04
1 82550U 26464CR  26070.40835648  .00000000  00000+0  00000-0 0  9994
2 82550  90.0000 144.0000 0000000   0.0000  54.0000 13.81096544    11
CTC1_L_00346014-01
1 82551U 25219SE  26070.40835648  .00000000  00000+0  00000-0 0  9992
2 82551  90.0000 156.0000 0000000   0.0000 156.0000 13.81096544    18
CTC1_L_00346014-02
1 82552U 25581ND  26070.40835648  .00000000  00000+0  00000-0 0  9995
2 82552  90.0000 156.0000 0000000   0.0000 246.0000 13.81096544    19
CTC1_L_00346014-03
1 82553U 23024JP  26070.40835648  .00000000  00000+0  00000-0 0  9996
2 82553  90.0000 156.0000 0000000   0.0000 336.0000 13.81096544    10
CTC1_L_00346014-04
1 82554U 25370RT  26070.40835648  .00000000  00000+0  00000-0 0  9993
2 82554  90.0000 156.0000 0000000   0.0000  66.0000 13.81096544    11
CTC1_L_00346015-01
1 82555U 22850JR  26070.40835648  .00000000  00000+0  00000-0 0  9994
2 82555  90.0000 168.0000 0000000   0.0000 168.0000 13.81096544    18
CTC1_L_00346015-02
1 82556U 22940CB  26070.40835648  .00000000  00000+0  00000-0 0  9995
2 82556  90.0000 168.0000 0000000   0.0000 258.0000 13.81096544    19
CTC1_L_00346015-03
1 82557U 24187TJ  26070.40835648  .00000000  00000+0  00000-0 0  9991
2 82557  90.0000 168.0000 0000000   0.0000 348.0000 13.81096544    10
CTC1_L_00346015-04
1 82558U 23654JZ  26070.40835648  .00000000  00000+0  00000-0 0  9990
2 82558  90.0000 168.0000 0000000   0.0000  78.0000 13.81096544    11
CTC1_L_00346016-01
1 82559U 25215IV  26070.40835648  .00000000  00000+0  00000-0 0  9996
2 82559  90.0000 180.0000 0000000   0.0000 180.0000 13.81096544    10
CTC1_L_00346016-02
1 82560U 22693EI  26070.40835648  .00000000  00000+0  00000-0 0  9995
2 82560  90.0000 180.0000 0000000   0.0000 270.0000 13.81096544    12
